[{"OBJECT_NAME":"SJ-11-02","OBJECT_ID":"2011-039A","EPOCH":"2026-03-09T16:40:57.382176","MEAN_MOTION":14.64358784,"ECCENTRICITY":0.00098038,"INCLINATION":98.2752,"RA_OF_ASC_NODE":318.2771,"ARG_OF_PERICENTER":209.2906,"MEAN_ANOMALY":212.5003,"EPHEMERIS_TYPE":0,"CLASSIFICATION_TYPE":"U","NORAD_CAT_ID":37765,"ELEMENT_SET_NO":999,"REV_AT_EPOCH":77939,"BSTAR":0.00016869851,"MEAN_MOTION_DOT":8.42e-6,"MEAN_MOTION_DDOT":0},{"OBJECT_NAME":"FENGYUN 1C DEB","OBJECT_ID":"1999-025AGT","EPOCH":"2026-03-09T13:21:25.799040","MEAN_MOTION":14.39437618,"ECCENTRICITY":0.02228411,"INCLINATION":98.333,"RA_OF_ASC_NODE":88.5192,"ARG_OF_PERICENTER":359.2613,"MEAN_ANOMALY":124.5513,"EPHEMERIS_TYPE":0,"CLASSIFICATION_TYPE":"U","NORAD_CAT_ID":30481,"ELEMENT_SET_NO":999,"REV_AT_EPOCH":99732,"BSTAR":0.00074800795,"MEAN_MOTION_DOT":3.067e-5,"MEAN_MOTION_DDOT":0}]
